*******************************************************************************
Ephemeris / WWW_USER Mon Mar 10 07:13:59 2025 Pasadena, USA      / Horizons    
*******************************************************************************
Target body name: (2018 OG)                       {source: JPL#12}
Center body name: Earth (399)                     {source: DE441}
Center-site name: Mauna Kea
*******************************************************************************
Start time      : A.D. 2018-Oct-10 04:12:00.0000 UT      
Stop  time      : A.D. 2018-Oct-10 16:05:00.0000 UT      
Step-size       : 1 minutes
*******************************************************************************
Target pole/equ : undefined
Target radii    : undefined                                                    
Center geodetic : 204.5278, 19.8260847, 4.21024   {E-lon(deg),Lat(deg),Alt(km)}
Center cylindric: 204.5278, 6006.35451, 2151.0229 {E-lon(deg),Dxy(km),Dz(km)}
Center pole/equ : ITRF93                          {East-longitude positive}
Center radii    : 6378.137, 6378.137, 6356.752 km {Equator_a, b, pole_c}       
Target primary  : Sun
Vis. interferer : MOON (R_eq= 1737.400) km        {source: DE441}
Rel. light bend : Sun                             {source: DE441}
Rel. lght bnd GM: 1.3271E+11 km^3/s^2                                          
Small-body perts: Yes                             {source: SB441-N16}
Atmos refraction: NO (AIRLESS)
RA format       : HMS
Time format     : CAL 
Calendar mode   : Mixed Julian/Gregorian
RTS-only print  : NO       
EOP file        : eop.250307.p250603                                           
EOP coverage    : DATA-BASED 1962-JAN-20 TO 2025-MAR-07. PREDICTS-> 2025-JUN-02
Units conversion: 1 au= 149597870.700 km, c= 299792.458 km/s, 1 day= 86400.0 s 
Table cut-offs 1: Elevation (-90.0deg=NO ),Airmass (>38.000=NO), Daylight (YES)
Table cut-offs 2: Solar elongation (  0.0,180.0=NO ),Local Hour Angle( 0.0=NO )
Table cut-offs 3: RA/DEC angular rate (     0.0=NO )                           
*******************************************************************************
Initial IAU76/J2000 heliocentric ecliptic osculating elements (au, days, deg.):
  EPOCH=  2458389.5 ! 2018-Sep-28.00 (TDB)         Residual RMS= .17662        
   EC= .5817218672922059   QR= .9873203561553971   TP= 2458366.942240702       
   OM= 131.0345430575832   W=  220.7633135105564   IN= 9.123860581277821       
  Equivalent ICRF heliocentric cartesian coordinates (au, au/d):
   X= 9.625437195102586E-01  Y= 3.686106454146055E-01  Z=-5.877845729655690E-03
  VX=-3.555418036941177E-03 VY= 1.979451357965206E-02 VZ= 6.659913004156397E-03
Asteroid physical parameters (km, seconds, rotational period in hours):        
   GM= n.a.                RAD= n.a.               ROTPER= n.a.                
   H= 23.6                 G= .150                 B-V= n.a.                   
                           ALBEDO= n.a.            STYP= n.a.                  
*******************************************************************************
 Date__(UT)__HR:MN     R.A._________(ICRF)_________DEC
******************************************************
$$SOE
 2018-Oct-10 12:24     06 37 39.085425 -06 20 13.76992
 2018-Oct-10 12:25     06 37 39.099157 -06 20 13.61451
 2018-Oct-10 12:26     06 37 39.112865 -06 20 13.45907
 2018-Oct-10 12:27     06 37 39.126548 -06 20 13.30359
 2018-Oct-10 12:28     06 37 39.140206 -06 20 13.14808
 2018-Oct-10 12:29     06 37 39.153839 -06 20 12.99254
 2018-Oct-10 12:30     06 37 39.167449 -06 20 12.83696
 2018-Oct-10 12:31     06 37 39.181033 -06 20 12.68135
 2018-Oct-10 12:32     06 37 39.194594 -06 20 12.52571
 2018-Oct-10 12:33     06 37 39.208130 -06 20 12.37003
 2018-Oct-10 12:34     06 37 39.221642 -06 20 12.21432
 2018-Oct-10 12:35     06 37 39.235130 -06 20 12.05858
 2018-Oct-10 12:36     06 37 39.248594 -06 20 11.90280
 2018-Oct-10 12:37     06 37 39.262034 -06 20 11.74698
 2018-Oct-10 12:38     06 37 39.275451 -06 20 11.59114
 2018-Oct-10 12:39     06 37 39.288843 -06 20 11.43525
 2018-Oct-10 12:40     06 37 39.302213 -06 20 11.27934
 2018-Oct-10 12:41     06 37 39.315558 -06 20 11.12339
 2018-Oct-10 12:42     06 37 39.328881 -06 20 10.96740
 2018-Oct-10 12:43     06 37 39.342180 -06 20 10.81138
 2018-Oct-10 12:44     06 37 39.355456 -06 20 10.65532
 2018-Oct-10 12:45     06 37 39.368708 -06 20 10.49922
 2018-Oct-10 12:46     06 37 39.381938 -06 20 10.34309
 2018-Oct-10 12:47     06 37 39.395145 -06 20 10.18693
 2018-Oct-10 12:48     06 37 39.408329 -06 20 10.03073
 2018-Oct-10 12:49     06 37 39.421490 -06 20 09.87449
 2018-Oct-10 12:50     06 37 39.434629 -06 20 09.71821
 2018-Oct-10 12:51     06 37 39.447745 -06 20 09.56190
 2018-Oct-10 12:52     06 37 39.460838 -06 20 09.40556
 2018-Oct-10 12:53     06 37 39.473910 -06 20 09.24917
 2018-Oct-10 12:54     06 37 39.486959 -06 20 09.09275
 2018-Oct-10 12:55     06 37 39.499986 -06 20 08.93629
 2018-Oct-10 12:56     06 37 39.512991 -06 20 08.77980
 2018-Oct-10 12:57     06 37 39.525974 -06 20 08.62326
 2018-Oct-10 12:58     06 37 39.538935 -06 20 08.46669
 2018-Oct-10 12:59     06 37 39.551874 -06 20 08.31008
 2018-Oct-10 13:00     06 37 39.564792 -06 20 08.15344
 2018-Oct-10 13:01     06 37 39.577688 -06 20 07.99675
 2018-Oct-10 13:02     06 37 39.590563 -06 20 07.84003
 2018-Oct-10 13:03     06 37 39.603416 -06 20 07.68327
 2018-Oct-10 13:04     06 37 39.616249 -06 20 07.52647
 2018-Oct-10 13:05     06 37 39.629060 -06 20 07.36963
 2018-Oct-10 13:06     06 37 39.641850 -06 20 07.21275
 2018-Oct-10 13:07     06 37 39.654619 -06 20 07.05584
 2018-Oct-10 13:08     06 37 39.667367 -06 20 06.89888
 2018-Oct-10 13:09     06 37 39.680095 -06 20 06.74189
 2018-Oct-10 13:10     06 37 39.692802 -06 20 06.58485
 2018-Oct-10 13:11     06 37 39.705488 -06 20 06.42778
 2018-Oct-10 13:12     06 37 39.718154 -06 20 06.27067
 2018-Oct-10 13:13     06 37 39.730800 -06 20 06.11351
 2018-Oct-10 13:14     06 37 39.743425 -06 20 05.95632
 2018-Oct-10 13:15     06 37 39.756031 -06 20 05.79909
 2018-Oct-10 13:16     06 37 39.768616 -06 20 05.64182
 2018-Oct-10 13:17     06 37 39.781182 -06 20 05.48450
 2018-Oct-10 13:18     06 37 39.793728 -06 20 05.32715
 2018-Oct-10 13:19     06 37 39.806254 -06 20 05.16976
 2018-Oct-10 13:20     06 37 39.818761 -06 20 05.01232
 2018-Oct-10 13:21     06 37 39.831248 -06 20 04.85485
 2018-Oct-10 13:22     06 37 39.843716 -06 20 04.69733
 2018-Oct-10 13:23     06 37 39.856164 -06 20 04.53977
 2018-Oct-10 13:24     06 37 39.868594 -06 20 04.38217
 2018-Oct-10 13:25     06 37 39.881004 -06 20 04.22453
 2018-Oct-10 13:26     06 37 39.893396 -06 20 04.06685
 2018-Oct-10 13:27     06 37 39.905769 -06 20 03.90913
 2018-Oct-10 13:28     06 37 39.918123 -06 20 03.75136
 2018-Oct-10 13:29     06 37 39.930459 -06 20 03.59356
 2018-Oct-10 13:30     06 37 39.942776 -06 20 03.43571
 2018-Oct-10 13:31     06 37 39.955075 -06 20 03.27782
 2018-Oct-10 13:32     06 37 39.967355 -06 20 03.11988
 2018-Oct-10 13:33     06 37 39.979618 -06 20 02.96191
 2018-Oct-10 13:34     06 37 39.991862 -06 20 02.80389
 2018-Oct-10 13:35     06 37 40.004089 -06 20 02.64583
 2018-Oct-10 13:36     06 37 40.016297 -06 20 02.48773
 2018-Oct-10 13:37     06 37 40.028489 -06 20 02.32958
 2018-Oct-10 13:38     06 37 40.040662 -06 20 02.17139
 2018-Oct-10 13:39     06 37 40.052818 -06 20 02.01316
 2018-Oct-10 13:40     06 37 40.064957 -06 20 01.85489
 2018-Oct-10 13:41     06 37 40.077079 -06 20 01.69657
 2018-Oct-10 13:42     06 37 40.089183 -06 20 01.53821
 2018-Oct-10 13:43     06 37 40.101271 -06 20 01.37980
 2018-Oct-10 13:44     06 37 40.113341 -06 20 01.22135
 2018-Oct-10 13:45     06 37 40.125395 -06 20 01.06286
 2018-Oct-10 13:46     06 37 40.137433 -06 20 00.90432
 2018-Oct-10 13:47     06 37 40.149453 -06 20 00.74574
 2018-Oct-10 13:48     06 37 40.161458 -06 20 00.58712
 2018-Oct-10 13:49     06 37 40.173446 -06 20 00.42845
 2018-Oct-10 13:50     06 37 40.185418 -06 20 00.26973
 2018-Oct-10 13:51     06 37 40.197374 -06 20 00.11098
 2018-Oct-10 13:52     06 37 40.209314 -06 19 59.95218
 2018-Oct-10 13:53     06 37 40.221238 -06 19 59.79333
 2018-Oct-10 13:54     06 37 40.233146 -06 19 59.63444
 2018-Oct-10 13:55     06 37 40.245039 -06 19 59.47550
 2018-Oct-10 13:56     06 37 40.256917 -06 19 59.31652
 2018-Oct-10 13:57     06 37 40.268779 -06 19 59.15749
 2018-Oct-10 13:58     06 37 40.280626 -06 19 58.99842
 2018-Oct-10 13:59     06 37 40.292458 -06 19 58.83931
 2018-Oct-10 14:00     06 37 40.304274 -06 19 58.68014
 2018-Oct-10 14:01     06 37 40.316076 -06 19 58.52094
 2018-Oct-10 14:02     06 37 40.327864 -06 19 58.36168
 2018-Oct-10 14:03     06 37 40.339636 -06 19 58.20239
 2018-Oct-10 14:04     06 37 40.351394 -06 19 58.04304
 2018-Oct-10 14:05     06 37 40.363138 -06 19 57.88365
 2018-Oct-10 14:06     06 37 40.374868 -06 19 57.72422
 2018-Oct-10 14:07     06 37 40.386583 -06 19 57.56473
 2018-Oct-10 14:08     06 37 40.398284 -06 19 57.40521
 2018-Oct-10 14:09     06 37 40.409972 -06 19 57.24563
 2018-Oct-10 14:10     06 37 40.421646 -06 19 57.08601
 2018-Oct-10 14:11     06 37 40.433306 -06 19 56.92634
 2018-Oct-10 14:12     06 37 40.444952 -06 19 56.76663
 2018-Oct-10 14:13     06 37 40.456585 -06 19 56.60687
 2018-Oct-10 14:14     06 37 40.468205 -06 19 56.44707
 2018-Oct-10 14:15     06 37 40.479812 -06 19 56.28721
 2018-Oct-10 14:16     06 37 40.491406 -06 19 56.12731
 2018-Oct-10 14:17     06 37 40.502987 -06 19 55.96737
 2018-Oct-10 14:18     06 37 40.514555 -06 19 55.80737
 2018-Oct-10 14:19     06 37 40.526110 -06 19 55.64733
 2018-Oct-10 14:20     06 37 40.537653 -06 19 55.48724
 2018-Oct-10 14:21     06 37 40.549183 -06 19 55.32711
 2018-Oct-10 14:22     06 37 40.560702 -06 19 55.16693
 2018-Oct-10 14:23     06 37 40.572208 -06 19 55.00670
 2018-Oct-10 14:24     06 37 40.583702 -06 19 54.84642
 2018-Oct-10 14:25     06 37 40.595184 -06 19 54.68609
 2018-Oct-10 14:26     06 37 40.606654 -06 19 54.52572
